TEVEL2-9                
1 63237U 25052AD  26068.70229538  .00018694  00000+0  67240-3 0  9992
2 63237  97.4057 324.3929 0007990 124.2475 235.9522 15.28633834 54816
STARLINK-34228          
1 64171U 25113B   26068.32418196  .00023985  00000+0  81915-3 0  9990
2 64171  53.1595  92.5130 0001043  94.1123 265.9997 15.30207314 45010
